[{"OBJECT_NAME":"SITRO-AIS-63","OBJECT_ID":"2025-313AY","EPOCH":"2026-03-09T22:32:46.298400","MEAN_MOTION":15.23042258,"ECCENTRICITY":0.00086521,"INCLINATION":97.4009,"RA_OF_ASC_NODE":145.3484,"ARG_OF_PERICENTER":354.3541,"MEAN_ANOMALY":5.7597,"EPHEMERIS_TYPE":0,"CLASSIFICATION_TYPE":"U","NORAD_CAT_ID":67294,"ELEMENT_SET_NO":999,"REV_AT_EPOCH":1086,"BSTAR":0.0005301085,"MEAN_MOTION_DOT":0.00012433,"MEAN_MOTION_DDOT":0},{"OBJECT_NAME":"AIST-2 (RS43)","OBJECT_ID":"2013-015D","EPOCH":"2026-03-09T22:52:25.813056","MEAN_MOTION":15.25079544,"ECCENTRICITY":0.00239979,"INCLINATION":64.8687,"RA_OF_ASC_NODE":221.5348,"ARG_OF_PERICENTER":248.8384,"MEAN_ANOMALY":111.0181,"EPHEMERIS_TYPE":0,"CLASSIFICATION_TYPE":"U","NORAD_CAT_ID":39133,"ELEMENT_SET_NO":999,"REV_AT_EPOCH":70876,"BSTAR":0.00037899099,"MEAN_MOTION_DOT":9.402e-5,"MEAN_MOTION_DDOT":0}]
